NORAD_CAT_ID,OBJECT_NAME,OBJECT_TYPE,EPOCH,MEAN_MOTION,ECCENTRICITY,INCLINATION,RA_OF_ASC_NODE,ARG_OF_PERICENTER,MEAN_ANOMALY,BSTAR,MEAN_MOTION_DOT,MEAN_MOTION_DDOT,TLE_LINE0,TLE_LINE1,TLE_LINE2,SEMIMAJOR_AXIS,PERIOD,APOGEE,PERIGEE,DECAYED
53775.0,STARLINK-4722,PAYLOAD,2024-01-26 11:23:23,15.08838845,0.0001177,53.2163,145.4488,70.0694,290.0425,0.00010137,1.326e-05,0.0,0 STARLINK-4722,1 53775U 22111C   24026.47457610  .00001326  00000-0  10137-3 0  9999,2 53775  53.2163 145.4488 0001177  70.0694 290.0425 15.08838845 76156,6917.884,95.438,540.563,538.935,0.0
53775.0,STARLINK-4722,PAYLOAD,2024-01-26 14:34:09,15.08844164,0.0001355,53.2165,144.8571,74.8058,285.3084,0.00013273,1.825e-05,0.0,0 STARLINK-4722,1 53775U 22111C   24026.60705245  .00001825  00000-0  13273-3 0  9992,2 53775  53.2165 144.8571 0001355  74.8058 285.3084 15.08844164 76988,6917.868,95.437,540.67,538.795,0.0
53775.0,STARLINK-4722,PAYLOAD,2024-01-27 12:49:33,15.08838382,0.0001418,53.2167,140.6942,88.1218,271.9936,9.0913e-05,1.159e-05,0.0,0 STARLINK-4722,1 53775U 22111C   24027.53441915  .00001159  00000-0  90913-4 0  9993,2 53775  53.2167 140.6942 0001418  88.1218 271.9936 15.08838382 76311,6917.885,95.438,540.731,538.769,0.0
53775.0,STARLINK-4722,PAYLOAD,2024-01-27 14:24:56,15.08839814,0.0001433,53.2169,140.3969,89.1013,271.0144,0.00010601,1.4e-05,0.0,0 STARLINK-4722,1 53775U 22111C   24027.60065822  .00001400  00000-0  10601-3 0  9994,2 53775  53.2169 140.3969 0001433  89.1013 271.0144 15.08839814 77134,6917.881,95.438,540.737,538.755,0.0
53775.0,STARLINK-4722,PAYLOAD,2024-01-28 11:04:56,15.0885394,0.0001482,53.2177,136.5359,87.4098,272.7064,7.0809e-05,8.4e-06,0.0,0 STARLINK-4722,1 53775U 22111C   24028.46176864  .00000840  00000-0  70809-4 0  9992,2 53775  53.2177 136.5359 0001482  87.4098 272.7064 15.08853940 76450,6917.838,95.437,540.728,538.678,0.0
53775.0,STARLINK-4722,PAYLOAD,2024-01-28 14:15:42,15.08866451,0.000141,53.2171,135.9358,83.1349,276.9804,0.00015484,2.179e-05,0.0,0 STARLINK-4722,1 53775U 22111C   24028.59423717  .00002179  00000-0  15484-3 0  9992,2 53775  53.2171 135.9358 0001410  83.1349 276.9804 15.08866451 77280,6917.8,95.436,540.64,538.689,0.0
53775.0,STARLINK-4722,PAYLOAD,2024-01-29 10:55:45,15.08833782,0.0001294,53.2176,132.0748,54.4807,305.6305,-1.1858e-05,-4.77e-06,0.0,0 STARLINK-4722,1 53775U 22111C   24029.45538354 -.00000477  00000-0 -11858-4 0  9995,2 53775  53.2176 132.0748 0001294  54.4807 305.6305 15.08833782 76608,6917.899,95.438,540.66,538.869,0.0
53775.0,STARLINK-4722,PAYLOAD,2024-01-29 15:41:54,15.08837222,0.0001381,53.2178,131.1787,96.4856,263.6293,2.537e-06,-2.48e-06,0.0,0 STARLINK-4722,1 53775U 22111C   24029.65409963 -.00000248  00000-0  25370-5 0  9990,2 53775  53.2178 131.1787 0001381  96.4856 263.6293 15.08837222 77445,6917.889,95.438,540.709,538.799,0.0
53775.0,STARLINK-4722,PAYLOAD,2024-01-30 12:21:55,15.08839702,0.0001476,53.2182,127.3142,93.5536,266.5625,-0.00012255,-2.238e-05,0.0,0 STARLINK-4722,1 53775U 22111C   24030.51522480 -.00002238  00000-0 -12255-3 0  9995,2 53775  53.2182 127.3142 0001476  93.5536 266.5625 15.08839702 76760,6917.881,95.438,540.767,538.725,0.0
53775.0,STARLINK-4722,PAYLOAD,2024-01-30 13:57:18,15.08840979,0.0001474,53.2179,127.0175,74.1675,285.9479,-0.00010509,-1.96e-05,0.0,0 STARLINK-4722,1 53775U 22111C   24030.58146450 -.00001960  00000-0 -10509-3 0  9992,2 53775  53.2179 127.0175 0001474  74.1675 285.9479 15.08840979 77587,6917.877,95.437,540.762,538.723,0.0
53775.0,STARLINK-4722,PAYLOAD,2024-01-31 12:12:42,15.08838631,0.0001436,53.2176,122.8553,65.6054,294.5088,0.00017517,2.501e-05,0.0,0 STARLINK-4722,1 53775U 22111C   24031.50882182  .00002501  00000-0  17517-3 0  9990,2 53775  53.2176 122.8553 0001436  65.6054 294.5088 15.08838631 77721,6917.885,95.438,540.743,538.756,0.0
53775.0,STARLINK-4722,PAYLOAD,2024-01-31 15:23:28,15.08844922,0.000141,53.2176,122.2599,70.2972,289.8173,0.0002222,3.251e-05,0.0,0 STARLINK-4722,1 53775U 22111C   24031.64129686  .00003251  00000-0  22220-3 0  9998,2 53775  53.2176 122.2599 0001410  70.2972 289.8173 15.08844922 76932,6917.865,95.437,540.706,538.755,0.0
53775.0,STARLINK-4722,PAYLOAD,2024-02-01 12:03:30,15.0883292,0.000136,53.2168,118.394,77.6125,282.502,7.4199e-05,8.93e-06,0.0,0 STARLINK-4722,1 53775U 22111C   24032.50243247  .00000893  00000-0  74199-4 0  9996,2 53775  53.2168 118.3940 0001360  77.6125 282.5020 15.08832920 77065,6917.902,95.438,540.708,538.826,0.0
53775.0,STARLINK-4722,PAYLOAD,2024-02-01 15:14:16,15.08837196,0.0001273,53.2166,117.798,81.6981,278.4155,0.00010215,1.338e-05,0.0,0 STARLINK-4722,1 53775U 22111C   24032.63490963  .00001338  00000-0  10215-3 0  9992,2 53775  53.2166 117.7980 0001273  81.6981 278.4155 15.08837196 77892,6917.889,95.438,540.635,538.873,0.0
53775.0,STARLINK-4722,PAYLOAD,2024-02-02 11:54:16,15.08851958,0.0001364,53.2175,113.9308,103.7656,256.3488,7.4986e-05,9.06e-06,0.0,0 STARLINK-4722,1 53775U 22111C   24033.49602032  .00000906  00000-0  74986-4 0  9995,2 53775  53.2175 113.9308 0001364 103.7656 256.3488 15.08851958 77212,6917.844,95.437,540.652,538.765,0.0
53775.0,STARLINK-4722,PAYLOAD,2024-02-02 15:05:02,15.08854452,0.0001333,53.2174,113.3351,107.6551,252.4587,9.423e-05,1.213e-05,0.0,0 STARLINK-4722,1 53775U 22111C   24033.62849768  .00001213  00000-0  94230-4 0  9995,2 53775  53.2174 113.3351 0001333 107.6551 252.4587 15.08854452 78047,6917.836,95.437,540.623,538.779,0.0
53775.0,STARLINK-4722,PAYLOAD,2024-02-03 10:09:40,15.088402,0.0001427,53.2157,109.7639,107.0579,253.0569,9.2115e-05,1.178e-05,0.0,0 STARLINK-4722,1 53775U 22111C   24034.42338770  .00001178  00000-0  92115-4 0  9990,2 53775  53.2157 109.7639 0001427 107.0579 253.0569 15.08840200 78160,6917.88,95.438,540.732,538.758,0.0
53775.0,STARLINK-4722,PAYLOAD,2024-02-03 14:55:50,15.08841256,0.0001605,53.2165,108.8759,110.3258,249.7906,6.9803e-05,8.23e-06,0.0,0 STARLINK-4722,1 53775U 22111C   24034.62210740  .00000823  00000-0  69803-4 0  9992,2 53775  53.2165 108.8759 0001605 110.3258 249.7906 15.08841256 77383,6917.877,95.437,540.852,538.631,0.0
53775.0,STARLINK-4722,PAYLOAD,2024-02-04 10:00:27,15.0885166,0.0001501,53.2167,105.3073,113.1929,246.9222,1.0163e-05,-1.26e-06,0.0,0 STARLINK-4722,1 53775U 22111C   24035.41698365 -.00000126  00000-0  10163-4 0  9995,2 53775  53.2167 105.3073 0001501 113.1929 246.9222 15.08851660 78311,6917.845,95.437,540.748,538.671,0.0
53775.0,STARLINK-4722,PAYLOAD,2024-02-05 11:26:38,15.08840172,0.0001451,53.2169,100.5533,103.5523,256.5631,0.00013606,1.878e-05,0.0,0 STARLINK-4722,1 53775U 22111C   24036.47682907  .00001878  00000-0  13606-3 0  9995,2 53775  53.2169 100.5533 0001451 103.5523 256.5631 15.08840172 77662,6917.88,95.438,540.749,538.741,0.0
53775.0,STARLINK-4722,PAYLOAD,2024-02-06 12:52:47,15.08846825,0.0001514,53.2167,95.795,99.1474,260.9689,7.8424e-05,9.61e-06,0.0,0 STARLINK-4722,1 53775U 22111C   24037.53666539  .00000961  00000-0  78424-4 0  9998,2 53775  53.2167  95.7950 0001514  99.1474 260.9689 15.08846825 78634,6917.86,95.437,540.772,538.677,0.0
53775.0,STARLINK-4722,PAYLOAD,2024-02-07 03:11:16,15.08838153,0.0001571,53.2172,93.1192,99.9308,260.1862,9.5888e-05,1.238e-05,0.0,0 STARLINK-4722,1 53775U 22111C   24038.13283064  .00001238  00000-0  95888-4 0  9994,2 53775  53.2172  93.1192 0001571  99.9308 260.1862 15.08838153 77917,6917.886,95.438,540.838,538.664,0.0
53775.0,STARLINK-4722,PAYLOAD,2024-02-07 11:08:11,15.08845534,0.0001586,53.2164,91.6314,90.691,269.4264,9.9333e-05,1.293e-05,0.0,0 STARLINK-4722,1 53775U 22111C   24038.46402725  .00001293  00000-0  99333-4 0  9997,2 53775  53.2164  91.6314 0001586  90.6910 269.4264 15.08845534 78774,6917.863,95.437,540.826,538.631,0.0
53775.0,STARLINK-4722,PAYLOAD,2024-02-07 20:40:31,15.08839244,0.0001751,53.2166,89.8484,78.3441,281.7748,3.6889e-05,2.99e-06,0.0,0 STARLINK-4722,1 53775U 22111C   24038.86147229  .00000299  00000-0  36889-4 0  9998,2 53775  53.2166  89.8484 0001751  78.3441 281.7748 15.08839244 78831,6917.883,95.438,540.959,538.536,0.0
53775.0,STARLINK-4722,PAYLOAD,2024-02-08 09:23:36,15.08839184,0.0001432,53.2158,87.4655,93.4993,266.6163,2.337e-06,-2.51e-06,0.0,0 STARLINK-4722,1 53775U 22111C   24039.39139665 -.00000251  00000-0  23370-5 0  9993,2 53775  53.2158  87.4655 0001432  93.4993 266.6163 15.08839184 78108,6917.883,95.438,540.739,538.757,0.0
53775.0,STARLINK-4722,PAYLOAD,2024-02-09 09:14:22,15.08851856,0.0001626,53.2168,83.0052,87.5241,272.5937,9.3427e-05,1.2e-05,0.0,0 STARLINK-4722,1 53775U 22111C   24040.38498719  .00001200  00000-0  93427-4 0  9995,2 53775  53.2168  83.0052 0001626  87.5241 272.5937 15.08851856 78258,6917.844,95.437,540.834,538.584,0.0
53775.0,STARLINK-4722,PAYLOAD,2024-02-09 12:25:09,15.0885354,0.0001594,53.2149,82.4095,88.004,272.1135,0.00022121,3.236e-05,0.0,0 STARLINK-4722,1 53775U 22111C   24040.51746777  .00003236  00000-0  22121-3 0  9993,2 53775  53.2149  82.4095 0001594  88.0040 272.1135 15.08853540 79084,6917.839,95.437,540.807,538.601,0.0
53775.0,STARLINK-4722,PAYLOAD,2024-02-10 09:05:10,15.08841871,0.0001682,53.2167,78.5447,88.1994,271.9191,0.00013584,1.875e-05,0.0,0 STARLINK-4722,1 53775U 22111C   24041.37859677  .00001875  00000-0  13584-3 0  9992,2 53775  53.2167  78.5447 0001682  88.1994 271.9191 15.08841871 78406,6917.875,95.437,540.903,538.576,0.0
53775.0,STARLINK-4722,PAYLOAD,2024-02-11 02:34:25,15.08828099,0.0001752,53.217,75.2709,101.7427,258.3762,0.00082625,0.00012882,0.0,0 STARLINK-4722,1 53775U 22111C   24042.10724421  .00012882  00000-0  82625-3 0  9994,2 53775  53.2170  75.2709 0001752 101.7427 258.3762 15.08828099 78518,6917.917,95.438,540.994,538.57,0.0
53775.0,STARLINK-4722,PAYLOAD,2024-02-11 08:55:57,15.08850005,0.000166,53.2168,74.0841,100.0139,260.104,-1.3749e-05,-5.07e-06,0.0,0 STARLINK-4722,1 53775U 22111C   24042.37219248 -.00000507  00000-0 -13749-4 0  9994,2 53775  53.2168  74.0841 0001660 100.0139 260.1040 15.08850005 78555,6917.85,95.437,540.863,538.566,0.0
